[
    {
    "OBJECT_NAME": "SHIJIAN-19 (SJ-19)",
    "OBJECT_ID": "2024-177A",
    "EPOCH": "2024-09-29T19:47:31.760160",
    "MEAN_MOTION": 15.80311438,
    "ECCENTRICITY": 0.001195,
    "INCLINATION": 41.6044,
    "RA_OF_ASC_NODE": 144.7034,
    "ARG_OF_PERICENTER": 290.1467,
    "MEAN_ANOMALY": 69.8095,
    "EPHEMERIS_TYPE": 0,
    "CLASSIFICATION_TYPE": "U",
    "NORAD_CAT_ID": 61444,
    "ELEMENT_SET_NO": 999,
    "REV_AT_EPOCH": 52,
    "BSTAR": 0.00055964,
    "MEAN_MOTION_DOT": 0.00110498,
    "MEAN_MOTION_DDOT": 0
    },
    {
    "OBJECT_NAME": "CZ-2D R/B",
    "OBJECT_ID": "2024-177B",
    "EPOCH": "2024-09-29T17:02:15.538848",
    "MEAN_MOTION": 15.7971566,
    "ECCENTRICITY": 0.0020158,
    "INCLINATION": 41.3951,
    "RA_OF_ASC_NODE": 145.3231,
    "ARG_OF_PERICENTER": 274.3567,
    "MEAN_ANOMALY": 146.3888,
    "EPHEMERIS_TYPE": 0,
    "CLASSIFICATION_TYPE": "U",
    "NORAD_CAT_ID": 61445,
    "ELEMENT_SET_NO": 999,
    "REV_AT_EPOCH": 36,
    "BSTAR": 0.0010276,
    "MEAN_MOTION_DOT": 0.00201699,
    "MEAN_MOTION_DDOT": 0
    },
    {
    "OBJECT_NAME": "CREW DRAGON 9",
    "OBJECT_ID": "2024-178A",
    "EPOCH": "2024-09-29T20:38:06.243072",
    "MEAN_MOTION": 15.49913214,
    "ECCENTRICITY": 0.0007109,
    "INCLINATION": 51.6372,
    "RA_OF_ASC_NODE": 156.9301,
    "ARG_OF_PERICENTER": 44.5341,
    "MEAN_ANOMALY": 315.6218,
    "EPHEMERIS_TYPE": 0,
    "CLASSIFICATION_TYPE": "U",
    "NORAD_CAT_ID": 61447,
    "ELEMENT_SET_NO": 999,
    "REV_AT_EPOCH": 47478,
    "BSTAR": 0.00049258,
    "MEAN_MOTION_DOT": 0.00027689,
    "MEAN_MOTION_DDOT": 0
    }
    ]
