CREW DRAGON 9           
1 61447U 24178A   24273.85979448  .00027689  00000+0  49258-3 0  9998
2 61447  51.6372 156.9301 0007109  44.5341 315.6218 15.49913214474786
SHIJIAN-19 (SJ-19)      
1 61444U 24177A   24273.82467315  .00110498  00000+0  55964-3 0  9998
2 61444  41.6044 144.7034 0011950 290.1467  69.8095 15.80311438   526
CZ-2D R/B               
1 61445U 24177B   24273.70990207  .00201699  00000+0  10276-2 0  9997
2 61445  41.3951 145.3231 0020158 274.3567 146.3888 15.79715660   368
